{
  "type": "FeatureCollection",
  "name": "sectores_monte_patria_provisorio",
  "metadata": {
    "description": "Representación territorial esquemática y referencial para el dashboard epidemiológico. No corresponde a límites oficiales.",
    "source": "Ajuste visual con herramienta interna /map-editor sobre imagen municipal referencial.",
    "replacement": "Reemplazar este archivo por GeoJSON municipal oficial manteniendo properties.id, properties.nombre_sector, properties.slug y properties.color."
  },
  "features": [
    {
      "type": "Feature",
      "properties": {
        "id": "monte-patria",
        "nombre_sector": "Monte Patria",
        "slug": "monte-patria",
        "color": "#22c55e"
      },
      "geometry": {
        "type": "Polygon",
        "coordinates": [
          [
            [
              -71.012020111084,
              -30.67786012209722
            ],
            [
              -70.78559875488283,
              -30.690181763492753
            ],
            [
              -70.76654434204103,
              -30.702876946689628
            ],
            [
              -70.73753356933595,
              -30.72412570353096
            ],
            [
              -70.71933746337892,
              -30.739416167345702
            ],
            [
              -70.62543869018556,
              -30.724867776065565
            ],
            [
              -70.58218002319337,
              -30.71881748912728
            ],
            [
              -70.55814743041994,
              -30.747123202076025
            ],
            [
              -70.60123443603517,
              -30.76005407003555
            ],
            [
              -70.64620971679689,
              -30.769253430358138
            ],
            [
              -70.71702003479005,
              -30.786529674726683
            ],
            [
              -70.77366828918458,
              -30.791457040968258
            ],
            [
              -70.8391571044922,
              -30.79779088928918
            ],
            [
              -70.88928222656251,
              -30.743862487222962
            ],
            [
              -70.90651273727418,
              -30.74180801785932
            ],
            [
              -70.92473030090333,
              -30.74095965197287
            ],
            [
              -70.98403930664064,
              -30.73718861400122
            ],
            [
              -71.012020111084,
              -30.67786012209722
            ]
          ]
        ]
      }
    },
    {
      "type": "Feature",
      "properties": {
        "id": "caren",
        "nombre_sector": "Carén",
        "slug": "caren",
        "color": "#3b82f6"
      },
      "geometry": {
        "type": "Polygon",
        "coordinates": [
          [
            [
              -70.83177566528322,
              -30.85073181800778
            ],
            [
              -70.83563804626466,
              -30.823316685998776
            ],
            [
              -70.83913564682008,
              -30.797865904579925
            ],
            [
              -70.83460807800294,
              -30.797368237295796
            ],
            [
              -70.8237934112549,
              -30.796265233441282
            ],
            [
              -70.81216335296632,
              -30.795119512503558
            ],
            [
              -70.80066204071046,
              -30.794234512682813
            ],
            [
              -70.78907489776613,
              -30.793220778101702
            ],
            [
              -70.77753067016603,
              -30.792133343274013
            ],
            [
              -70.71693420410158,
              -30.786751899274083
            ],
            [
              -70.66818237304689,
              -30.775172186053837
            ],
            [
              -70.62011718750001,
              -30.76425510341174
            ],
            [
              -70.60157775878908,
              -30.760420561092047
            ],
            [
              -70.55728912353517,
              -30.74714399537896
            ],
            [
              -70.55025100708009,
              -30.757620723508456
            ],
            [
              -70.5315399169922,
              -30.785502964058583
            ],
            [
              -70.51403045654298,
              -30.815583473417504
            ],
            [
              -70.61668395996095,
              -30.850350176072034
            ],
            [
              -70.6743621826172,
              -30.87039412425831
            ],
            [
              -70.75366973876955,
              -30.893902486379424
            ],
            [
              -70.74680328369142,
              -30.959794360569227
            ],
            [
              -70.69873809814455,
              -30.99482974441271
            ],
            [
              -70.66131591796876,
              -31.00395620570217
            ],
            [
              -70.62114715576173,
              -31.007591562079476
            ],
            [
              -70.61518192291261,
              -31.00836378830097
            ],
            [
              -70.60870170593263,
              -31.008805155377054
            ],
            [
              -70.57479858398439,
              -31.008512597468354
            ],
            [
              -70.54681777954103,
              -31.012262871362474
            ],
            [
              -70.53892135620119,
              -31.014985904556756
            ],
            [
              -70.53033828735353,
              -31.022340511978232
            ],
            [
              -70.52209854125978,
              -31.029842892183858
            ],
            [
              -70.51609039306642,
              -31.037491766219674
            ],
            [
              -70.51111221313478,
              -31.045728729878377
            ],
            [
              -70.51197052001955,
              -31.058080973612245
            ],
            [
              -70.51265716552736,
              -31.06043801760646
            ],
            [
              -70.5780601501465,
              -31.05403759837994
            ],
            [
              -70.58672904968263,
              -31.053301927108627
            ],
            [
              -70.59556961059572,
              -31.052493030355965
            ],
            [
              -70.60913085937501,
              -31.050948582352866
            ],
            [
              -70.6225633621216,
              -31.04918415224573
            ],
            [
              -70.649471282959,
              -31.04646209665667
            ],
            [
              -70.67247390747072,
              -31.044403083524365
            ],
            [
              -70.69101333618165,
              -31.04278492457906
            ],
            [
              -70.7003688812256,
              -31.041681678922103
            ],
            [
              -70.71092605590822,
              -31.040431423418546
            ],
            [
              -70.71978807449342,
              -31.039421641676682
            ],
            [
              -70.72193384170534,
              -31.039182602594874
            ],
            [
              -70.72352170944215,
              -31.03877820909355
            ],
            [
              -70.72706222534181,
              -31.036824285828832
            ],
            [
              -70.75590133666994,
              -31.017356705263975
            ],
            [
              -70.80894470214845,
              -30.980724569814598
            ],
            [
              -70.81272125244142,
              -30.95950443248804
            ],
            [
              -70.81503868103029,
              -30.946991522457434
            ],
            [
              -70.82061767578126,
              -30.918647191507766
            ],
            [
              -70.82791328430177,
              -30.8779179965936
            ],
            [
              -70.83177566528322,
              -30.85073181800778
            ]
          ]
        ]
      }
    },
    {
      "type": "Feature",
      "properties": {
        "id": "el-palqui",
        "nombre_sector": "El Palqui",
        "slug": "el-palqui",
        "color": "#ef4444"
      },
      "geometry": {
        "type": "Polygon",
        "coordinates": [
          [
            [
              -70.97270965576173,
              -30.738147495178495
            ],
            [
              -70.96206665039064,
              -30.73873771512607
            ],
            [
              -70.94524383544923,
              -30.73984420662226
            ],
            [
              -70.92824935913087,
              -30.740876915008368
            ],
            [
              -70.91691970825197,
              -30.74131874638259
            ],
            [
              -70.90651273727418,
              -30.741872706703177
            ],
            [
              -70.90129852294923,
              -30.763669530419996
            ],
            [
              -70.89657783508302,
              -30.78542444723613
            ],
            [
              -70.90679168701173,
              -30.80288186140241
            ],
            [
              -70.91125488281251,
              -30.809385217307227
            ],
            [
              -70.91700553894044,
              -30.81918882629709
            ],
            [
              -70.9215545654297,
              -30.82766768243274
            ],
            [
              -70.9270477294922,
              -30.835036126382946
            ],
            [
              -70.93708992004396,
              -30.832161436843663
            ],
            [
              -70.94713211059572,
              -30.829286661212986
            ],
            [
              -70.95713138580324,
              -30.826191141761093
            ],
            [
              -70.962131023407,
              -30.824643344608702
            ],
            [
              -70.96713066101076,
              -30.823095522506286
            ],
            [
              -70.99897384643556,
              -30.814103048305736
            ],
            [
              -70.99768638610841,
              -30.809237407317497
            ],
            [
              -70.99657058715822,
              -30.80333974214465
            ],
            [
              -70.99433898925783,
              -30.792870651974734
            ],
            [
              -70.99245071411134,
              -30.782768906193866
            ],
            [
              -70.99167823791505,
              -30.775689848865348
            ],
            [
              -70.99047660827638,
              -30.768389147532865
            ],
            [
              -70.98781585693361,
              -30.75630679971351
            ],
            [
              -70.98627090454103,
              -30.74589300734328
            ],
            [
              -70.98438262939455,
              -30.73799928457551
            ],
            [
              -70.97270965576173,
              -30.738147495178495
            ]
          ]
        ]
      }
    },
    {
      "type": "Feature",
      "properties": {
        "id": "chanaral-alto",
        "nombre_sector": "Chañaral Alto",
        "slug": "chanaral-alto",
        "color": "#eab308"
      },
      "geometry": {
        "type": "Polygon",
        "coordinates": [
          [
            [
              -71.06432922184469,
              -30.898471124227616
            ],
            [
              -71.06222167611122,
              -30.895753257218214
            ],
            [
              -71.06011413037778,
              -30.893035313060167
            ],
            [
              -71.05800658464433,
              -30.890317291757416
            ],
            [
              -71.05589903891088,
              -30.887599193313893
            ],
            [
              -71.05379149317743,
              -30.884881017733512
            ],
            [
              -71.05168394744396,
              -30.882162765020205
            ],
            [
              -71.04957640171052,
              -30.87944443517791
            ],
            [
              -71.04746885597706,
              -30.87672602821055
            ],
            [
              -71.04536131024362,
              -30.874007544122062
            ],
            [
              -71.04325376451017,
              -30.871288982916358
            ],
            [
              -71.04114621877672,
              -30.868570344597394
            ],
            [
              -71.03693112730981,
              -30.863132836635412
            ],
            [
              -71.03271603584291,
              -30.85769502026756
            ],
            [
              -71.03060849010944,
              -30.854975996441286
            ],
            [
              -71.02850094437599,
              -30.85225689552534
            ],
            [
              -71.0242858529091,
              -30.846818462440275
            ],
            [
              -71.02217830717564,
              -30.84409913027901
            ],
            [
              -71.02007076144218,
              -30.841379721043854
            ],
            [
              -71.0158556699753,
              -30.83594067136763
            ],
            [
              -71.01374812424184,
              -30.833221030934435
            ],
            [
              -71.01164057850838,
              -30.830501313443115
            ],
            [
              -71.00953303277494,
              -30.82778151889763
            ],
            [
              -71.00742548704149,
              -30.82506164730191
            ],
            [
              -71.00531794130802,
              -30.822341698659887
            ],
            [
              -71.00321039557458,
              -30.819621672975543
            ],
            [
              -70.99899530410768,
              -30.814181390495627
            ],
            [
              -70.98735049366951,
              -30.817565242067648
            ],
            [
              -70.97570568323137,
              -30.82094897442744
            ],
            [
              -70.95241606235506,
              -30.827716081479938
            ],
            [
              -70.93973860144617,
              -30.831387368776173
            ],
            [
              -70.92706114053728,
              -30.835058515670916
            ],
            [
              -70.92049174010754,
              -30.841611544805506
            ],
            [
              -70.91392233967781,
              -30.84816412645129
            ],
            [
              -70.90735293924809,
              -30.854716260553136
            ],
            [
              -70.90078353881837,
              -30.861267947055865
            ],
            [
              -70.89618086814882,
              -30.866028589501237
            ],
            [
              -70.89157819747926,
              -30.870788995541094
            ],
            [
              -70.8869755268097,
              -30.875549165154318
            ],
            [
              -70.88237285614015,
              -30.880309098319813
            ],
            [
              -70.87316751480104,
              -30.889828255223172
            ],
            [
              -70.86396217346193,
              -30.89934646608245
            ],
            [
              -70.86193442344667,
              -30.908322989719284
            ],
            [
              -70.85990667343141,
              -30.91729867147386
            ],
            [
              -70.85787892341615,
              -30.926273511204922
            ],
            [
              -70.8558511734009,
              -30.93524750877128
            ],
            [
              -70.85382342338563,
              -30.94422066403182
            ],
            [
              -70.85179567337038,
              -30.953192976845536
            ],
            [
              -70.84976792335512,
              -30.962164447071505
            ],
            [
              -70.84774017333986,
              -30.971135074568934
            ],
            [
              -70.86070060729982,
              -30.971024331562266
            ],
            [
              -70.8671808242798,
              -30.970968960010744
            ],
            [
              -70.87366104125978,
              -30.970913588427138
            ],
            [
              -70.88014125823976,
              -30.97085821681142
            ],
            [
              -70.88662147521974,
              -30.97080284516358
            ],
            [
              -70.8995819091797,
              -30.970692101771522
            ],
            [
              -70.90606212615968,
              -30.970636730027298
            ],
            [
              -70.91254234313966,
              -30.970581358251003
            ],
            [
              -70.92550277709962,
              -30.97047061460206
            ],
            [
              -70.93846321105958,
              -30.970359870824602
            ],
            [
              -70.95142364501955,
              -30.970249126918684
            ],
            [
              -70.95655940473081,
              -30.970264662363828
            ],
            [
              -70.96169516444208,
              -30.9702801978064
            ],
            [
              -70.97196668386461,
              -30.970311268684
            ],
            [
              -70.98223820328714,
              -30.97034233955151
            ],
            [
              -70.99250972270967,
              -30.970373410408886
            ],
            [
              -71.00278124213219,
              -30.970404481256157
            ],
            [
              -71.01305276155473,
              -30.970435552093324
            ],
            [
              -71.02332428097725,
              -30.970466622920366
            ],
            [
              -71.0335958003998,
              -30.970497693737283
            ],
            [
              -71.04272603988649,
              -30.97052531223275
            ],
            [
              -71.05185627937318,
              -30.97055293072021
            ],
            [
              -71.06098651885988,
              -30.970580549199695
            ],
            [
              -71.07011675834657,
              -30.970608167671177
            ],
            [
              -71.07924699783327,
              -30.97063578613467
            ],
            [
              -71.08837723731996,
              -30.970663404590177
            ],
            [
              -71.09750747680665,
              -30.970691023037677
            ],
            [
              -71.09556555747987,
              -30.966348621869894
            ],
            [
              -71.09362363815309,
              -30.962006023208648
            ],
            [
              -71.09168171882631,
              -30.957663227069855
            ],
            [
              -71.08973979949953,
              -30.9533202334695
            ],
            [
              -71.08779788017274,
              -30.948977042423596
            ],
            [
              -71.08585596084596,
              -30.944633653948056
            ],
            [
              -71.08391404151918,
              -30.940290068058907
            ],
            [
              -71.0819721221924,
              -30.935946284772168
            ],
            [
              -71.08003020286561,
              -30.93160230410382
            ],
            [
              -71.07808828353883,
              -30.927258126069802
            ],
            [
              -71.07711732387544,
              -30.925085963045703
            ],
            [
              -71.07614636421205,
              -30.92291375068617
            ],
            [
              -71.07517540454866,
              -30.920741488993276
            ],
            [
              -71.07420444488527,
              -30.91856917796898
            ],
            [
              -71.07226252555849,
              -30.91422440793415
            ],
            [
              -71.0703206062317,
              -30.909879440597777
            ],
            [
              -71.06837868690492,
              -30.9055342759759
            ],
            [
              -71.06643676757814,
              -30.901188914084482
            ],
            [
              -71.06432922184469,
              -30.898471124227616
            ]
          ]
        ]
      }
    }
  ]
}